<?xml version="1.0" encoding="UTF-8"?>
<gpx version="1.1" creator="kyoto-stamps" xmlns="http://www.topografix.com/GPX/1/1">
<metadata><name>Печати Киото</name></metadata>
<wpt lat="34.9948" lon="135.785"><name>Киёмидзу-дэра</name><desc>Госюин — пишут от руки. 300 ¥ за печать
Часы: 8:00–18:00 (в июле и августе до 18:30)
Вход: вход в главный зал 500 ¥, к окошку — бесплатно
Куда идти: Нокё-дзё — павильон сразу к востоку от главного зала, за верандой над обрывом
Условия: Здесь больше десяти разных печатей: главный зал, Окуноин, Дзуйгу-до, Амида-до, Тайсан-дзи, Дзэнко-дзи-до. Каждая по 300 ¥, называете нужную у окошка. Печать Дзёдзю-ин выдают только весной и осенью, когда открывают сад.
Заметка: Главная очередь в городе. Утром до 9:00 подходишь без ожидания, к полудню стоят 30–40 минут.
Район: Хигасияма</desc><type>госюин</type></wpt>
<wpt lat="35.0036" lon="135.7785"><name>Ясака-дзиндзя</name><desc>Госюин — пишут от руки. 500 ¥
Часы: окошко 9:00–17:00
Вход: вход свободный, круглосуточно
Куда идти: Дзюё-дзё справа от главного зала, там же продают амулеты
Условия: Кроме основной есть печати нескольких малых святилищ внутри ограды — Утаяма и Экидзин. Продают собственные госюинтё с фонарями Гиона.
Заметка: Ближайшее к Гиону место: удобно взять первую печать в поездке и сразу купить блокнот.
Район: Хигасияма</desc><type>госюин</type></wpt>
<wpt lat="34.9986" lon="135.7752"><name>Ясуи Компира-гу</name><desc>Госюин — пишут от руки. 500 ¥
Часы: окошко 9:00–17:30
Вход: вход свободный
Куда идти: Окошко слева от главного зала, у выхода к «камню разрыва связей»
Условия: Святилище про разрыв плохих связей и завязывание хороших. Печать выдают обычным порядком; в дни праздников бывает сезонный вариант.
Заметка: Знаменитый камень, сквозь который пролезают, — во дворе. Очередь к нему длиннее, чем к печати.
Район: Хигасияма</desc><type>госюин</type></wpt>
<wpt lat="34.9995" lon="135.7742"><name>Кэннин-дзи</name><desc>Госюин — пишут от руки. 500 ¥
Часы: 10:00–16:30
Вход: вход в залы 600 ¥
Куда идти: Приёмная у входа в главные залы, сразу после кассы
Условия: Старейший дзэнский храм Киото. Печать пишут прямо при вас; бывает вариант с драконами с потолка Хатто.
Заметка: Часто выдают заранее написанный лист (какиоки), если каллиграф занят.
Район: Хигасияма</desc><type>госюин</type></wpt>
<wpt lat="35" lon="135.7808"><name>Кодай-дзи</name><desc>Госюин — пишут от руки. 300 ¥
Часы: 9:00–17:00
Вход: вход 600 ¥
Куда идти: Окошко у выхода из сада, рядом с сувенирной лавкой
Условия: Основную печать пишут в книжку. Осенью, когда сад подсвечивают вечером, выдают отдельный сезонный вариант.
Район: Хигасияма</desc><type>госюин</type></wpt>
<wpt lat="35.0055" lon="135.7825"><name>Тион-ин</name><desc>Госюин — пишут от руки. 300 ¥
Часы: 9:00–16:00
Вход: территория бесплатно, сады 400–500 ¥
Куда идти: Нокё-дзё в правом крыле главного зала Миэй-до
Условия: Главный храм школы Дзёдо. Печатей несколько — по главному залу и по паломническому маршруту Хонэн-сёнин.
Заметка: Огромные ворота Саммон у входа — самые большие деревянные ворота Японии.
Район: Хигасияма</desc><type>госюин</type></wpt>
<wpt lat="35.0072" lon="135.7833"><name>Сёрэн-ин</name><desc>Госюин — пишут от руки. 500 ¥
Часы: 9:00–16:30
Вход: вход 600 ¥
Куда идти: Стойка у входа: книжку оставляют, пока вы обходите сад, и отдают на выходе
Условия: Печать с изображением Фудо-мёо — синего Фудо со знаменитой храмовой картины.
Район: Хигасияма</desc><type>госюин</type></wpt>
<wpt lat="35.016" lon="135.7825"><name>Хэйан-дзингу</name><desc>Госюин — пишут от руки. 300 ¥
Часы: окошко 8:30–17:00
Вход: двор бесплатно, сад 600 ¥
Куда идти: Дзюё-дзё в правой галерее, за огромным двором из белого гравия
Условия: Одна простая печать, очередей почти не бывает.
Заметка: Гигантские красные ворота-тории через дорогу — их видно издалека, но само святилище дальше на север.
Район: Хигасияма</desc><type>госюин</type></wpt>
<wpt lat="35.0114" lon="135.7947"><name>Нандзэн-дзи</name><desc>Госюин — пишут от руки. 300 ¥
Часы: 8:40–17:00 (зимой до 16:30)
Вход: территория бесплатно, залы 600 ¥, ворота 600 ¥
Куда идти: Нокё-дзё внутри Ходзё — главных залов с сухим садом
Условия: Чтобы получить печать, нужен билет в Ходзё: окошко за турникетом.
Заметка: Кирпичный акведук Суйрокаку во дворе — бесплатно и без билета.
Район: Хигасияма</desc><type>госюин</type></wpt>
<wpt lat="35.0148" lon="135.7952"><name>Эйкан-до</name><desc>Госюин — пишут от руки. 500 ¥
Часы: 9:00–16:00
Вход: 600 ¥, в сезон клёнов 1000 ¥
Куда идти: Окошко у входа в залы, сразу после того как снимете обувь
Условия: Печать с «оглядывающимся Амидой» — статуей, повернувшей голову через плечо.
Заметка: Лучшие клёны Киото; в ноябре ходят вечерние сеансы, печати тогда не выдают.
Район: Хигасияма</desc><type>госюин</type></wpt>
<wpt lat="35.027" lon="135.7982"><name>Гинкаку-дзи</name><desc>Госюин — пишут от руки. 300 ¥
Часы: 8:30–17:00 (зимой 9:00–16:30)
Вход: 500 ¥
Куда идти: Нокё-дзё в середине маршрута по саду, у подножия холма
Условия: Книжку отдают на входе в сад и забирают на этом же окошке — так не приходится ждать.
Район: Хигасияма</desc><type>госюин</type></wpt>
<wpt lat="35.0225" lon="135.7952"><name>Хонэн-ин</name><desc>Госюин — пишут от руки. 500 ¥
Часы: 6:00–16:00
Вход: вход свободный
Куда идти: Столик слева от соломенных ворот, у входа в сад
Условия: Чаще всего лежит стопка заранее написанных листов и ящик для денег — берёте лист, кладёте деньги.
Заметка: Тихий храм с земляными холмиками у ворот. Внутренние залы открывают дважды в год.
Район: Хигасияма</desc><type>госюин</type></wpt>
<wpt lat="35.0192" lon="135.7869"><name>Конкай-Комё-дзи (Куродани)</name><desc>Госюин — пишут от руки. 300–500 ¥
Часы: 9:00–16:00
Вход: территория бесплатно
Куда идти: Окошко в приёмной справа от главного зала
Условия: Обычно есть несколько вариантов, в том числе «афро-Будда» — статуя Годзо Амиды с необычной причёской, местная достопримечательность.
Заметка: Туристов почти нет, очередей не бывает.
Район: Хигасияма</desc><type>госюин</type></wpt>
<wpt lat="34.9878" lon="135.7717"><name>Сандзюсанген-до</name><desc>Госюин — пишут от руки. 300 ¥
Часы: 8:30–17:00 (зимой 9:00–16:00)
Вход: 600 ¥
Куда идти: Окошко в конце галереи, после тысячи статуй Каннон
Условия: Печать 17-го храма паломничества Сайгоку. Книжку принимают только внутри, по билету.
Заметка: Внутри нельзя фотографировать — печать остаётся единственным материальным следом визита.
Район: Хигасияма</desc><type>госюин</type></wpt>
<wpt lat="34.9762" lon="135.7742"><name>Тофуку-дзи</name><desc>Госюин — пишут от руки. 300 ¥
Часы: 9:00–16:00
Вход: территория бесплатно, сады 500–1000 ¥
Куда идти: Нокё-дзё рядом с главным залом Хондо
Условия: Отдельные печати есть у субхрамов Комё-ин и Рэйун-ин — туда идти со своими 300 ¥.
Заметка: Мост Цутэн-кё над ущельем клёнов; в ноябре здесь толпа, в остальное время пусто.
Район: Хигасияма</desc><type>госюин</type></wpt>
<wpt lat="35.0195" lon="135.7893"><name>Окадзаки-дзиндзя</name><desc>Госюин — пишут от руки. 500 ¥
Часы: 9:00–17:00
Вход: вход свободный
Куда идти: Окошко справа от главного зала
Условия: Святилище зайцев: печать с отпечатком заячьей лапы. Входит в новогодний обход шестнадцати святилищ.
Заметка: Приходят за амулетами на зачатие и лёгкие роды; фигурки зайцев по всему двору.
Район: Хигасияма</desc><type>госюин</type></wpt>
<wpt lat="35.0077" lon="135.783"><name>Авата-дзиндзя</name><desc>Госюин — пишут от руки. 500 ¥
Часы: 9:00–17:00
Вход: вход свободный
Куда идти: Окошко у главного зала, на верху лестницы
Условия: Участник ралли мечей: печать с именем клинка. Также входит в обход шестнадцати святилищ.
Заметка: Отсюда исторически выходили путники на дорогу Токайдо — святилище считалось «проводами в путь».
Район: Хигасияма</desc><type>госюин</type></wpt>
<wpt lat="35.0128" lon="135.7972"><name>Кумано-някуодзи</name><desc>Госюин — пишут от руки. 300 ¥
Часы: 9:00–17:00
Вход: вход свободный
Куда идти: Маленькое окошко у главного зала
Условия: Начало Тропы философа с южного конца. Входит в обход шестнадцати святилищ.
Заметка: Служитель бывает не всегда — в будни днём вернее.
Район: Хигасияма</desc><type>госюин</type></wpt>
<wpt lat="35.0195" lon="135.7825"><name>Киото Кумано-дзиндзя</name><desc>Госюин — пишут от руки. 300 ¥
Часы: 9:00–16:00
Вход: вход свободный
Куда идти: Окошко слева от входа
Условия: Небольшое городское святилище на перекрёстке Марутамати и Хигасиодзи. Входит в обход шестнадцати святилищ.
Заметка: Рядом знаменитая лавка ячменных моти Ясиро.
Район: Хигасияма</desc><type>госюин</type></wpt>
<wpt lat="35.0433" lon="135.7965"><name>Сисэн-до</name><desc>Госюин — пишут от руки. 300 ¥
Часы: 9:00–16:45
Вход: 700 ¥
Куда идти: Стойка у входа, где принимают плату
Условия: Книжку оставляют при входе и забирают на выходе.
Заметка: Крошечный сад с бамбуковым отпугивателем оленей; посетителей мало.
Район: Хигасияма</desc><type>госюин</type></wpt>
<wpt lat="35.0078" lon="135.7595"><name>Роккаку-до</name><desc>Госюин — пишут от руки. 300 ¥
Часы: 8:00–17:00
Вход: вход свободный
Куда идти: Окошко справа от шестиугольного зала, во дворе
Условия: Печать 18-го храма паломничества Сайгоку. Пишут быстро, очередей нет.
Заметка: Считается географическим центром старого города; отсюда пошла школа икебаны Икэнобо.
Район: Центр</desc><type>госюин</type></wpt>
<wpt lat="35.005" lon="135.766"><name>Нисики Тэнмангу</name><desc>Госюин — пишут от руки. 500 ¥
Часы: 9:00–17:00
Вход: вход свободный
Куда идти: Окошко у главного зала, в глубине двора
Условия: Стоит прямо в торце рынка Нисики. Печать обычная, бывают сезонные варианты с цветами сливы.
Заметка: Ворота святилища буквально встроены в стены двух соседних зданий — рабочая городская странность.
Район: Центр</desc><type>госюин</type></wpt>
<wpt lat="35.029" lon="135.7482"><name>Сэймэй-дзиндзя</name><desc>Госюин — пишут от руки. 500 ¥
Часы: окошко 9:00–17:00
Вход: вход свободный
Куда идти: Дзюё-дзё справа от главного зала
Условия: Святилище гадателя Абэ-но Сэймэя. Печать с пятиконечной звездой; бывают ограниченные варианты, о них пишут на сайте.
Заметка: Популярно у поклонников аниме и книг про оммёдо — по выходным очередь.
Район: Центр</desc><type>госюин</type></wpt>
<wpt lat="35.0142" lon="135.7481"><name>Замок Нидзё</name><desc>Госюин — пишут от руки. печать замка 300 ¥ · штамп бесплатно
Здесь же стоит бесплатный памятный штамп.
Часы: штамп 8:45–16:00, лавка 9:00–17:00
Вход: вход 1300 ¥ (двор 800 ¥)
Куда идти: Бесплатный штамп «53 Нидзё-дзё» — в большом зале отдыха (дай-кюкэй-дзё). Печать замка (го-дзёин) — в лавке ассоциации туризма там же
Условия: Это не госюин: замок не храм. Го-дзёин — печатный лист с гербом Токугава, продаётся готовым. Бесплатный штамп входит в набор «100 знаменитых замков Японии».
Заметка: Штамп можно поставить, не покупая билет во дворец: зал отдыха на территории, куда пускают по обычному входному.
Район: Центр</desc><type>госюин</type></wpt>
<wpt lat="34.9998" lon="135.7452"><name>Мибу-дэра</name><desc>Госюин — пишут от руки. 300 ¥
Часы: 8:30–16:30
Вход: двор бесплатно, музей 300 ¥
Куда идти: Окошко в приёмной слева от главного зала
Условия: База отряда Синсэнгуми: печати с их знаком «誠». Несколько вариантов, спрашивайте у окошка.
Заметка: Во дворе могилы бойцов отряда — вход к ним отдельный.
Район: Центр</desc><type>госюин</type></wpt>
<wpt lat="34.995" lon="135.7642"><name>Итихимэ-дзиндзя</name><desc>Госюин — пишут от руки. 300 ¥
Часы: 9:00–16:00
Вход: вход свободный
Куда идти: Окошко в первом этаже жилого дома — святилище встроено в городскую застройку
Условия: Все божества женские; приходят просить о женском здоровье. Входит в обход шестнадцати святилищ.
Заметка: Окошко закрывается в 16:00 — на час раньше большинства.
Район: Центр</desc><type>госюин</type></wpt>
<wpt lat="35.0245" lon="135.758"><name>Сугавара-ин Тэнмангу</name><desc>Госюин — пишут от руки. 300 ¥
Часы: 9:00–17:00
Вход: вход свободный
Куда идти: Окошко у главного зала, напротив западной стены дворцового парка
Условия: Место рождения Сугавара-но Митидзанэ, покровителя учащихся. С 2026 года входит в обход шестнадцати святилищ вместо Има-Кумано.
Заметка: Совсем маленькое, легко пройти мимо: ворота прямо на улице Карасума.
Район: Центр</desc><type>госюин</type></wpt>
<wpt lat="35.0338" lon="135.7607"><name>Камигорё-дзиндзя</name><desc>Госюин — пишут от руки. 300 ¥
Часы: 9:00–17:00
Вход: вход свободный
Куда идти: Окошко справа от главного зала
Условия: Успокаивает духов несправедливо погибших. Входит в обход шестнадцати святилищ.
Заметка: Здесь началась война Онин, спалившая средневековый Киото.
Район: Центр</desc><type>госюин</type></wpt>
<wpt lat="34.9915" lon="135.7513"><name>Ниси Хонган-дзи</name><desc>Бесплатный штамп — ставите сами.
Часы: 5:30–17:00
Вход: вход свободный
Куда идти: Столик с памятными штампами у выхода из главного зала Амида-до
Условия: Госюин здесь не выдают принципиально: школа Дзёдо-синсю считает отметку о посещении лишней. Есть бесплатный памятный штамп — ставите сами в свой блокнот.
Заметка: Огромные деревянные залы, объект ЮНЕСКО, вход бесплатный. Ходить можно свободно.
Район: Центр</desc><type>штамп бесплатно</type></wpt>
<wpt lat="34.9895" lon="135.7595"><name>Хигаси Хонган-дзи</name><desc>Бесплатный штамп — ставите сами.
Часы: 5:50–17:30 (зимой 6:20–16:30)
Вход: вход свободный
Куда идти: Стойка с памятными штампами в галерее у выхода
Условия: Госюин не выдают по той же причине, что и в Ниси Хонган-дзи. Штамп бесплатный и самообслуживаемый.
Заметка: Десять минут пешком от вокзала — удобно зайти между поездами.
Район: Центр</desc><type>штамп бесплатно</type></wpt>
<wpt lat="35.0122" lon="135.7594"><name>Музей манги</name><desc>Бесплатный штамп — ставите сами.
Часы: 10:30–17:30, среда выходной
Вход: вход 1200 ¥
Куда идти: Столики со штампами у главной лестницы и в залах
Условия: Несколько разных штампов с персонажами; ставите сами. Нужен входной билет.
Заметка: Здание бывшей школы; 300 тысяч томов манги, часть можно читать на газоне.
Район: Центр</desc><type>штамп бесплатно</type></wpt>
<wpt lat="35.0394" lon="135.7292"><name>Кинкаку-дзи</name><desc>Госюин — пишут от руки. 300 ¥
Часы: 9:00–17:00
Вход: 500 ¥
Куда идти: Окошко у павильона Фудо-до — в конце маршрута, перед выходом
Условия: Печать не на Золотой павильон, а на Фудо-мёо. Проще всего отдать книжку сразу, как дойдёте, и подождать пару минут.
Заметка: Входной билет здесь сам по себе бумажный талисман — его многие оставляют.
Район: Север</desc><type>госюин</type></wpt>
<wpt lat="35.0345" lon="135.7183"><name>Рёан-дзи</name><desc>Госюин — пишут от руки. 300 ¥
Часы: 8:00–17:00 (зимой 8:30–16:30)
Вход: 600 ¥
Куда идти: Окошко внутри Ходзё, рядом с сухим садом камней
Условия: Печать выдают по билету, у выхода из зала с садом.
Заметка: Пруд перед храмом и чайный домик — тоже по этому же билету.
Район: Север</desc><type>госюин</type></wpt>
<wpt lat="35.0309" lon="135.7137"><name>Нинна-дзи</name><desc>Госюин — пишут от руки. 300 ¥
Часы: 9:00–16:30
Вход: территория бесплатно, дворцовые залы 800 ¥
Куда идти: Нокё-дзё у главного зала Кондо, ближе к пагоде
Условия: Печатей несколько: главный зал, Мироку, паломничество Омуро. Территория бесплатная, за печатью билет не нужен.
Заметка: Низкорослая сакура Омуро цветёт в середине апреля — на две недели позже остального города.
Район: Север</desc><type>госюин</type></wpt>
<wpt lat="35.0233" lon="135.7203"><name>Мёсин-дзи</name><desc>Госюин — пишут от руки. 300 ¥
Часы: 9:00–16:00
Вход: территория бесплатно, залы с драконом 700 ¥
Куда идти: Приёмная у главных залов; у субхрамов Тайдзо-ин и Кэйсюн-ин свои окошки
Условия: Целый квартал из сорока с лишним храмов. Печать главного храма — в центре, отдельные — в каждом открытом субхраме.
Заметка: Дракон на потолке зала Хатто смотрит на вас из любой точки — на это и приходят.
Район: Север</desc><type>госюин</type></wpt>
<wpt lat="35.0313" lon="135.7351"><name>Китано Тэнмангу</name><desc>Госюин — пишут от руки. 500 ¥
Часы: окошко 9:00–16:30
Вход: двор бесплатно, сливовый сад 1200 ¥
Куда идти: Дзюё-дзё справа от главного зала
Условия: Главное святилище учащихся Японии. Часто выпускают сезонные печати — со сливой в феврале, с клёнами в ноябре.
Заметка: 25-го числа каждого месяца во дворе большая барахолка Тэндзин-сан.
Район: Север</desc><type>госюин</type></wpt>
<wpt lat="35.0437" lon="135.7458"><name>Дайтоку-дзи</name><desc>Госюин — пишут от руки. 300–500 ¥ в каждом субхраме
Часы: 9:00–16:30
Вход: территория бесплатно, каждый субхрам 400–500 ¥
Куда идти: Свои окошки в открытых субхрамах: Дайсэн-ин, Дзуйхо-ин, Рюгэн-ин, Кото-ин
Условия: Единой печати у комплекса нет. Идёте в конкретный субхрам, покупаете билет, там же получаете печать.
Заметка: Дайсэн-ин — самый известный сухой сад; фотографировать внутри запрещено.
Район: Север</desc><type>госюин</type></wpt>
<wpt lat="35.0413" lon="135.75"><name>Кэнкун-дзиндзя</name><desc>Госюин — пишут от руки. 500 ¥
Часы: 9:00–17:00
Вход: вход свободный
Куда идти: Окошко у главного зала, на вершине холма Фунаока
Условия: Святилище Оды Нобунаги и организатор ралли мечей. Печать с именем клинка Хэйсисиро Садамунэ.
Заметка: С холма видно весь город и гору Хиэй. Подъём по лестнице минут пять.
Район: Север</desc><type>госюин</type></wpt>
<wpt lat="35.0464" lon="135.7381"><name>Имамия-дзиндзя</name><desc>Госюин — пишут от руки. 300 ¥
Часы: 9:00–17:00
Вход: вход свободный
Куда идти: Окошко слева от главного зала
Условия: «Святилище золушки» — сюда приходят за удачным замужеством. Входит в обход шестнадцати святилищ.
Заметка: У восточных ворот две лавки жареных моти абурамоти, спорящих за первенство с XI века. Обе работают.
Район: Север</desc><type>госюин</type></wpt>
<wpt lat="35.04" lon="135.7275"><name>Вара Тэндзин</name><desc>Госюин — пишут от руки. 300 ¥
Часы: 9:00–17:00
Вход: вход свободный
Куда идти: Окошко у главного зала
Условия: Приходят за лёгкими родами: дают соломинку — с узлом к мальчику, без узла к девочке. Входит в обход шестнадцати святилищ.
Заметка: В пяти минутах от Кинкаку-дзи, но туристов нет вовсе.
Район: Север</desc><type>госюин</type></wpt>
<wpt lat="35.0389" lon="135.7727"><name>Симогамо-дзиндзя</name><desc>Госюин — пишут от руки. 500 ¥
Часы: окошко 9:00–17:00
Вход: вход свободный, «зал грёз» 500 ¥
Куда идти: Дзюё-дзё в правой галерее главного двора
Условия: Есть отдельная печать святилища красоты Кавай, что у южного входа, — за ней идти туда.
Заметка: Идти через первобытную рощу Тадасу-но мори — двадцать минут пешком от Демачиянаги.
Район: Север</desc><type>госюин</type></wpt>
<wpt lat="35.06" lon="135.7527"><name>Камигамо-дзиндзя</name><desc>Госюин — пишут от руки. 500 ¥
Часы: окошко 9:00–16:30
Вход: вход свободный, внутренний двор 500 ¥
Куда идти: Дзюё-дзё справа, за вторыми воротами
Условия: Старейшее святилище города. Печать одна, пишут при вас.
Заметка: Два конуса из белого песка во дворе — модель священной горы. Ручей вдоль домов служителей.
Район: Север</desc><type>госюин</type></wpt>
<wpt lat="35.0158" lon="135.6739"><name>Тэнрю-дзи</name><desc>Госюин — пишут от руки. 300 ¥
Часы: 8:30–17:00
Вход: сад 500 ¥, залы +300 ¥
Куда идти: Нокё-дзё у входа в залы Кури, слева от кассы
Условия: Печать выдают и без билета в залы — окошко до турникета.
Заметка: Бамбуковая роща Арасиямы начинается прямо от северных ворот храма.
Район: Запад</desc><type>госюин</type></wpt>
<wpt lat="35.018" lon="135.6724"><name>Нономия-дзиндзя</name><desc>Госюин — пишут от руки. 500 ¥
Часы: 9:00–17:00
Вход: вход свободный
Куда идти: Окошко у входа в маленький двор, посреди бамбуковой рощи
Условия: Печать чаще всего заранее написанная. Приходят просить о хорошем браке и учёбе.
Заметка: Ворота из неокорённого дуба — редкая архаичная форма. Очередь к «камню желаний» бывает больше, чем к печати.
Район: Запад</desc><type>госюин</type></wpt>
<wpt lat="34.9998" lon="135.6851"><name>Мацуо-тайся</name><desc>Госюин — пишут от руки. 500 ¥
Часы: окошко 9:00–16:00
Вход: двор бесплатно, сады 500 ¥
Куда идти: Дзюё-дзё справа от главного зала
Условия: Покровитель сакеваров: во дворе стена из бочек, присланных винокурнями со всей страны.
Заметка: Ходит трамвай Ханкю до одноимённой станции — 200 метров до ворот.
Район: Запад</desc><type>госюин</type></wpt>
<wpt lat="35.0362" lon="135.6603"><name>Отаги Нэмбуцу-дзи</name><desc>Госюин — пишут от руки. 300 ¥
Часы: 8:00–16:30
Вход: 500 ¥
Куда идти: То же окошко, где продают билет — при входе
Условия: Печать выдают сразу вместе с билетом, не надо искать отдельную стойку.
Заметка: 1200 каменных фигур ракан, вырезанных прихожанами в 1980-х: каждая со своим лицом, есть с фотоаппаратом и с теннисной ракеткой.
Район: Запад</desc><type>госюин</type></wpt>
<wpt lat="35.062" lon="135.674"><name>Дзинго-дзи (Такао)</name><desc>Госюин — пишут от руки. 300 ¥
Часы: 9:00–16:00
Вход: 1000 ¥
Куда идти: Нокё-дзё у главного зала, на вершине лестницы
Условия: От остановки автобуса до ворот — 350 ступеней вверх. Заложите час только на подъём и спуск.
Заметка: Отсюда бросают глиняные тарелочки какэварадзара в ущелье — на удачу.
Район: Запад</desc><type>госюин</type></wpt>
<wpt lat="35.0592" lon="135.6784"><name>Кодзан-дзи</name><desc>Госюин — пишут от руки. 300 ¥
Часы: 8:30–17:00
Вход: осенью 500 ¥, зал Сэкисуй-ин 1000 ¥
Куда идти: Окошко у зала Сэкисуй-ин
Условия: Хранит свиток «Весёлые картинки зверей» — прародителя манги. Оригинал в музее, здесь копия.
Заметка: В горах Такао, час на автобусе от вокзала. По дороге — Дзинго-дзи и Саймё-дзи, логично объединить.
Район: Запад</desc><type>госюин</type></wpt>
<wpt lat="35.0074" lon="135.7327"><name>Сай-ин Касуга</name><desc>Госюин — пишут от руки. 300 ¥
Часы: 9:00–17:00
Вход: вход свободный
Куда идти: Окошко у главного зала
Условия: Приходят просить об исцелении и о безопасной дороге. Входит в обход шестнадцати святилищ.
Заметка: Прямо у станции Сай-ин линии Ханкю — удобно по пути в Арасияму.
Район: Запад</desc><type>госюин</type></wpt>
<wpt lat="35.0152" lon="135.6786"><name>Станция Арасияма (Ранден)</name><desc>Бесплатный штамп — ставите сами.
Часы: весь день
Вход: платформа открытая, билет не нужен
Куда идти: Столик со штампом на платформе, рядом с информационной стойкой
Условия: Штамп трамвайной линии Кэйфуку. Ставите сами в любой блокнот.
Заметка: «Лес кимоно» — колонны с тканью — тут же на платформе, вечером с подсветкой.
Район: Запад</desc><type>штамп бесплатно</type></wpt>
<wpt lat="35.0186" lon="135.682"><name>Станция Сага-Арасияма (JR)</name><desc>Бесплатный штамп — ставите сами.
Часы: весь день
Вход: штамп в вестибюле, до турникетов
Куда идти: Стойка у выхода, рядом с автоматами
Условия: Обычный вокзальный штамп JR West с бамбуковой рощей.
Заметка: Отсюда же отходит паровозик Сагано Торокко — у его станции свой отдельный штамп.
Район: Запад</desc><type>штамп бесплатно</type></wpt>
<wpt lat="34.9678" lon="135.7726"><name>Фусими Инари — главный зал</name><desc>Госюин — пишут от руки. 300–500 ¥
Часы: окошко 8:30–16:00
Вход: вход свободный, круглосуточно
Куда идти: Дзюё-дзё справа от главного зала, сразу за большими воротами
Условия: Четыре варианта печати. Само святилище открыто всегда, но окошко закрывается в 16:00 — приходить раньше.
Заметка: Одна из трёх точек с печатями внутри комплекса. Каждая пишет своё — собирают все три.
Район: Юг</desc><type>госюин</type></wpt>
<wpt lat="34.9673" lon="135.7787"><name>Фусими Инари — Окуся</name><desc>Госюин — пишут от руки. 300–500 ¥
Часы: окошко 8:30–16:00
Вход: вход свободный
Куда идти: В конце первого коридора из тысячи ворот, 10 минут вверх от главного зала
Условия: Пять вариантов печати — больше, чем внизу. Здесь же камни «омокару» — загадываешь и поднимаешь.
Заметка: Дальше начинается подъём на гору. Большинство разворачивается именно тут.
Район: Юг</desc><type>госюин</type></wpt>
<wpt lat="34.964" lon="135.783"><name>Фусими Инари — Годзэндани</name><desc>Госюин — пишут от руки. 300–500 ¥
Часы: окошко 9:00–15:45
Вход: вход свободный
Куда идти: На середине горы Инари, за перекрёстком Ёцуцудзи
Условия: Три варианта, включая печать с датой по старому счёту. Подъём от подножия — около часа.
Заметка: Закрывается раньше всех — в 15:45. Кто вышел после обеда, туда не успевает.
Район: Юг</desc><type>госюин</type></wpt>
<wpt lat="34.9812" lon="135.7477"><name>То-дзи</name><desc>Госюин — пишут от руки. 300 ¥
Часы: 8:00–17:00
Вход: двор бесплатно, залы 500–1000 ¥
Куда идти: Нокё-дзё в северо-восточном углу двора, у сувенирной лавки
Условия: Печатей больше десяти — по разным залам и паломническим маршрутам. Выдают и без билета в залы.
Заметка: 21-го числа каждого месяца — большая барахолка Кобо-сан по всему двору.
Район: Юг</desc><type>госюин</type></wpt>
<wpt lat="34.9917" lon="135.7719"><name>Тоёкуни-дзиндзя</name><desc>Госюин — пишут от руки. 500 ¥
Часы: 9:00–17:00
Вход: двор бесплатно, сокровищница 500 ¥
Куда идти: Окошко справа от резных ворот Карамон
Условия: Святилище Тоётоми Хидэёси. Участник ралли мечей и обхода шестнадцати святилищ — печати разные, называйте нужную.
Заметка: Ворота Карамон перенесены из замка Фусими — национальное сокровище, стоит просто так во дворе.
Район: Юг</desc><type>госюин</type></wpt>
<wpt lat="34.983" lon="135.742"><name>Рокусоно-о-дзиндзя</name><desc>Госюин — пишут от руки. 300 ¥
Часы: 9:00–17:00
Вход: вход свободный
Куда идти: Окошко у главного зала
Условия: Родовое святилище клана Минамото. Входит в обход шестнадцати святилищ.
Заметка: Пять минут пешком от То-дзи — логично объединить.
Район: Юг</desc><type>госюин</type></wpt>
<wpt lat="34.97" lon="135.7345"><name>Китидзё-ин Тэнмангу</name><desc>Госюин — пишут от руки. 300 ¥
Часы: 9:00–17:00
Вход: вход свободный
Куда идти: Окошко у главного зала
Условия: Ещё одно святилище Митидзанэ, на месте усадьбы его рода. Входит в обход шестнадцати святилищ.
Заметка: Совсем не туристическое место, служитель бывает не весь день.
Район: Юг</desc><type>госюин</type></wpt>
<wpt lat="34.9497" lon="135.77"><name>Фудзиномори-дзиндзя</name><desc>Госюин — пишут от руки. 500 ¥
Часы: 9:00–17:00
Вход: вход свободный, сад гортензий 300 ¥
Куда идти: Дзюё-дзё слева от главного зала
Условия: Святилище лошадей и скачек. Участник ралли мечей и обхода шестнадцати святилищ.
Заметка: В июне цветут 3500 кустов гортензий — главный местный повод приехать.
Район: Юг</desc><type>госюин</type></wpt>
<wpt lat="34.933" lon="135.7625"><name>Гокономия-дзиндзя</name><desc>Госюин — пишут от руки. 300 ¥
Часы: 9:00–16:00
Вход: вход свободный, сад 200 ¥
Куда идти: Окошко справа от главного зала
Условия: Источник целебной воды, одна из ста лучших вод Японии — можно набрать бесплатно. Входит в обход шестнадцати святилищ.
Заметка: В квартале винокурен Фусими: рядом музей сакэ Гэккэйкан.
Район: Юг</desc><type>госюин</type></wpt>
<wpt lat="34.9858" lon="135.7588"><name>Вокзал Киото</name><desc>Бесплатный штамп — ставите сами.
Часы: весь день
Вход: штамп у турникетов, билет не нужен
Куда идти: Стойка со штампом у центрального выхода, рядом с турникетами линии Токайдо
Условия: Вокзальный штамп JR West с пятиярусной пагодой То-дзи. Ставите сами. На вокзале несколько разных — у линий Синкансэн и Нара свои.
Заметка: На 2-м этаже туристический центр «Кёнаби»: карты на русском нет, но на английском есть.
Район: Юг</desc><type>штамп бесплатно</type></wpt>
<wpt lat="34.967" lon="135.7724"><name>Станция Инари (JR)</name><desc>Бесплатный штамп — ставите сами.
Часы: весь день
Вход: штамп в вестибюле
Куда идти: Стойка у выхода, прямо напротив ворот Фусими Инари
Условия: Штамп с лисой и воротами. Удобно поставить, пока ждёте обратный поезд.
Заметка: Станция стоит буквально у входа в святилище — переходить дорогу не нужно.
Район: Юг</desc><type>штамп бесплатно</type></wpt>
<wpt lat="34.9876" lon="135.7592"><name>Киотская башня</name><desc>Бесплатный штамп — ставите сами.
Часы: 10:00–21:00
Вход: смотровая площадка 900 ¥, холл бесплатно
Куда идти: Штампы на смотровой площадке и в торговом этаже под башней
Условия: Обычные памятные штампы, самообслуживание.
Заметка: Со смотровой видно весь город и, в ясный день, гору Хиэй.
Район: Юг</desc><type>штамп бесплатно</type></wpt>
<wpt lat="35.1189" lon="135.7714"><name>Курама-дэра</name><desc>Госюин — пишут от руки. 300 ¥
Часы: 9:00–16:15
Вход: пожертвование 500 ¥, канатка 200 ¥
Куда идти: Нокё-дзё у главного зала, на верхней площадке
Условия: От станции наверх — либо пешком 30 минут, либо на маленькой канатной дороге. Печатей несколько, включая перевал Осуги.
Заметка: Отсюда можно перейти горой в Кибунэ за час — тропа с корнями деревьев, обувь нужна нормальная.
Район: Дальние</desc><type>госюин</type></wpt>
<wpt lat="35.1215" lon="135.7626"><name>Кифунэ-дзиндзя</name><desc>Госюин — пишут от руки. 500 ¥
Часы: окошко 9:00–16:30
Вход: вход свободный
Куда идти: Дзюё-дзё у главного зала, на верху лестницы с красными фонарями
Условия: Печатей две: главный зал и «внутреннее» святилище Окуномия выше по ручью.
Заметка: Знаменитая лестница с фонарями — та самая открыточная. Здесь же гадание на бумажках, которые проявляются в воде.
Район: Дальние</desc><type>госюин</type></wpt>
<wpt lat="35.1157" lon="135.7699"><name>Станция Курама (Эйдзан)</name><desc>Бесплатный штамп — ставите сами.
Часы: весь день
Вход: штамп в вестибюле
Куда идти: Стойка у выхода, под огромной маской тэнгу
Условия: Штамп горной линии Эйдзан. Ставите сами.
Заметка: Красная маска длинноносого тэнгу у станции — местный символ и точка сбора.
Район: Дальние</desc><type>штамп бесплатно</type></wpt>
<wpt lat="35.1197" lon="135.8345"><name>Сандзэн-ин (Охара)</name><desc>Госюин — пишут от руки. 300 ¥
Часы: 9:00–17:00 (зимой до 16:30)
Вход: 700 ¥
Куда идти: Окошко в залах, у выхода в моховой сад
Условия: Печать пишут по билету, внутри. Есть вариант с фигурками варабэ-дзидзо.
Заметка: Час на автобусе от вокзала. Деревня Охара в горах — заметно холоднее города.
Район: Дальние</desc><type>госюин</type></wpt>
<wpt lat="35.0508" lon="135.8013"><name>Мансю-ин</name><desc>Госюин — пишут от руки. 500 ¥
Часы: 9:00–17:00
Вход: 600 ¥
Куда идти: Стойка у входа, где принимают плату
Условия: Печать с Фудо-мёо. Книжку оставляют на входе.
Заметка: Далеко от остановки, подъём в гору минут двадцать. Зато пусто даже в ноябре.
Район: Дальние</desc><type>госюин</type></wpt>
<wpt lat="34.951" lon="135.8195"><name>Дайго-дзи</name><desc>Госюин — пишут от руки. 300 ¥
Часы: 9:00–17:00 (зимой до 16:30)
Вход: нижний храм 1000 ¥, верхний бесплатно
Куда идти: Нокё-дзё у зала Кондо в нижнем храме Симо-Дайго
Условия: У верхнего храма Ками-Дайго на горе своё окошко — подъём пешком около часа, там печати другие.
Заметка: Пятиярусная пагода 951 года — старейшее здание Киото. Знаменитое ханами Хидэёси было здесь.
Район: Дальние</desc><type>госюин</type></wpt>
<wpt lat="34.8895" lon="135.8077"><name>Бёдо-ин (Удзи)</name><desc>Госюин — пишут от руки. 300 ¥
Часы: 9:00–17:00
Вход: 700 ¥, музей +600 ¥, зал Феникса +300 ¥
Куда идти: Окошко у выхода из музея Хосёкан
Условия: Печать с именем Амида-нёрай. В зал Феникса пускают сеансами по 50 человек — билет берут сразу на входе.
Заметка: Тот самый храм с монеты в 10 иен. Полчаса на поезде от вокзала Киото.
Район: Дальние</desc><type>госюин</type></wpt>
<wpt lat="34.8918" lon="135.8112"><name>Удзигами-дзиндзя</name><desc>Госюин — пишут от руки. 300 ¥
Часы: 9:00–16:30
Вход: вход свободный
Куда идти: Окошко у главного зала
Условия: Печать простая; бывают сезонные варианты с кроликами — символом Удзи.
Заметка: Старейшее сохранившееся здание святилища в Японии, около 1060 года. Через реку от Бёдо-ин, десять минут пешком.
Район: Дальние</desc><type>госюин</type></wpt>
</gpx>
