<?xml version="1.0" encoding="UTF-8"?>
<kml xmlns="http://www.opengis.net/kml/2.2"><Document>
<name>Печати Киото — госюин и бесплатные штампы</name>
<description>71 точка: храмы с рукописными госюин и места с бесплатными памятными штампами. Сведения собраны 5 сентября 2026 года.</description>
<Style id="s0"><IconStyle><Icon><href>https://maps.google.com/mapfiles/kml/paddle/red-circle.png</href></Icon></IconStyle></Style>
<Folder><name>Госюин — платно, пишут от руки</name>
<Placemark><name>Киёмидзу-дэра · 清水寺</name><description>Госюин — пишут от руки. 300 ¥ за печать
Часы: 8:00–18:00 (в июле и августе до 18:30)
Вход: вход в главный зал 500 ¥, к окошку — бесплатно
Куда идти: Нокё-дзё — павильон сразу к востоку от главного зала, за верандой над обрывом
Условия: Здесь больше десяти разных печатей: главный зал, Окуноин, Дзуйгу-до, Амида-до, Тайсан-дзи, Дзэнко-дзи-до. Каждая по 300 ¥, называете нужную у окошка. Печать Дзёдзю-ин выдают только весной и осенью, когда открывают сад.
Заметка: Главная очередь в городе. Утром до 9:00 подходишь без ожидания, к полудню стоят 30–40 минут.
Район: Хигасияма</description><styleUrl>#s0</styleUrl><Point><coordinates>135.785,34.9948,0</coordinates></Point></Placemark>
<Placemark><name>Ясака-дзиндзя · 八坂神社</name><description>Госюин — пишут от руки. 500 ¥
Часы: окошко 9:00–17:00
Вход: вход свободный, круглосуточно
Куда идти: Дзюё-дзё справа от главного зала, там же продают амулеты
Условия: Кроме основной есть печати нескольких малых святилищ внутри ограды — Утаяма и Экидзин. Продают собственные госюинтё с фонарями Гиона.
Заметка: Ближайшее к Гиону место: удобно взять первую печать в поездке и сразу купить блокнот.
Район: Хигасияма</description><styleUrl>#s0</styleUrl><Point><coordinates>135.7785,35.0036,0</coordinates></Point></Placemark>
<Placemark><name>Ясуи Компира-гу · 安井金比羅宮</name><description>Госюин — пишут от руки. 500 ¥
Часы: окошко 9:00–17:30
Вход: вход свободный
Куда идти: Окошко слева от главного зала, у выхода к «камню разрыва связей»
Условия: Святилище про разрыв плохих связей и завязывание хороших. Печать выдают обычным порядком; в дни праздников бывает сезонный вариант.
Заметка: Знаменитый камень, сквозь который пролезают, — во дворе. Очередь к нему длиннее, чем к печати.
Район: Хигасияма</description><styleUrl>#s0</styleUrl><Point><coordinates>135.7752,34.9986,0</coordinates></Point></Placemark>
<Placemark><name>Кэннин-дзи · 建仁寺</name><description>Госюин — пишут от руки. 500 ¥
Часы: 10:00–16:30
Вход: вход в залы 600 ¥
Куда идти: Приёмная у входа в главные залы, сразу после кассы
Условия: Старейший дзэнский храм Киото. Печать пишут прямо при вас; бывает вариант с драконами с потолка Хатто.
Заметка: Часто выдают заранее написанный лист (какиоки), если каллиграф занят.
Район: Хигасияма</description><styleUrl>#s0</styleUrl><Point><coordinates>135.7742,34.9995,0</coordinates></Point></Placemark>
<Placemark><name>Кодай-дзи · 高台寺</name><description>Госюин — пишут от руки. 300 ¥
Часы: 9:00–17:00
Вход: вход 600 ¥
Куда идти: Окошко у выхода из сада, рядом с сувенирной лавкой
Условия: Основную печать пишут в книжку. Осенью, когда сад подсвечивают вечером, выдают отдельный сезонный вариант.
Район: Хигасияма</description><styleUrl>#s0</styleUrl><Point><coordinates>135.7808,35,0</coordinates></Point></Placemark>
<Placemark><name>Тион-ин · 知恩院</name><description>Госюин — пишут от руки. 300 ¥
Часы: 9:00–16:00
Вход: территория бесплатно, сады 400–500 ¥
Куда идти: Нокё-дзё в правом крыле главного зала Миэй-до
Условия: Главный храм школы Дзёдо. Печатей несколько — по главному залу и по паломническому маршруту Хонэн-сёнин.
Заметка: Огромные ворота Саммон у входа — самые большие деревянные ворота Японии.
Район: Хигасияма</description><styleUrl>#s0</styleUrl><Point><coordinates>135.7825,35.0055,0</coordinates></Point></Placemark>
<Placemark><name>Сёрэн-ин · 青蓮院門跡</name><description>Госюин — пишут от руки. 500 ¥
Часы: 9:00–16:30
Вход: вход 600 ¥
Куда идти: Стойка у входа: книжку оставляют, пока вы обходите сад, и отдают на выходе
Условия: Печать с изображением Фудо-мёо — синего Фудо со знаменитой храмовой картины.
Район: Хигасияма</description><styleUrl>#s0</styleUrl><Point><coordinates>135.7833,35.0072,0</coordinates></Point></Placemark>
<Placemark><name>Хэйан-дзингу · 平安神宮</name><description>Госюин — пишут от руки. 300 ¥
Часы: окошко 8:30–17:00
Вход: двор бесплатно, сад 600 ¥
Куда идти: Дзюё-дзё в правой галерее, за огромным двором из белого гравия
Условия: Одна простая печать, очередей почти не бывает.
Заметка: Гигантские красные ворота-тории через дорогу — их видно издалека, но само святилище дальше на север.
Район: Хигасияма</description><styleUrl>#s0</styleUrl><Point><coordinates>135.7825,35.016,0</coordinates></Point></Placemark>
<Placemark><name>Нандзэн-дзи · 南禅寺</name><description>Госюин — пишут от руки. 300 ¥
Часы: 8:40–17:00 (зимой до 16:30)
Вход: территория бесплатно, залы 600 ¥, ворота 600 ¥
Куда идти: Нокё-дзё внутри Ходзё — главных залов с сухим садом
Условия: Чтобы получить печать, нужен билет в Ходзё: окошко за турникетом.
Заметка: Кирпичный акведук Суйрокаку во дворе — бесплатно и без билета.
Район: Хигасияма</description><styleUrl>#s0</styleUrl><Point><coordinates>135.7947,35.0114,0</coordinates></Point></Placemark>
<Placemark><name>Эйкан-до · 永観堂禅林寺</name><description>Госюин — пишут от руки. 500 ¥
Часы: 9:00–16:00
Вход: 600 ¥, в сезон клёнов 1000 ¥
Куда идти: Окошко у входа в залы, сразу после того как снимете обувь
Условия: Печать с «оглядывающимся Амидой» — статуей, повернувшей голову через плечо.
Заметка: Лучшие клёны Киото; в ноябре ходят вечерние сеансы, печати тогда не выдают.
Район: Хигасияма</description><styleUrl>#s0</styleUrl><Point><coordinates>135.7952,35.0148,0</coordinates></Point></Placemark>
<Placemark><name>Гинкаку-дзи · 銀閣寺</name><description>Госюин — пишут от руки. 300 ¥
Часы: 8:30–17:00 (зимой 9:00–16:30)
Вход: 500 ¥
Куда идти: Нокё-дзё в середине маршрута по саду, у подножия холма
Условия: Книжку отдают на входе в сад и забирают на этом же окошке — так не приходится ждать.
Район: Хигасияма</description><styleUrl>#s0</styleUrl><Point><coordinates>135.7982,35.027,0</coordinates></Point></Placemark>
<Placemark><name>Хонэн-ин · 法然院</name><description>Госюин — пишут от руки. 500 ¥
Часы: 6:00–16:00
Вход: вход свободный
Куда идти: Столик слева от соломенных ворот, у входа в сад
Условия: Чаще всего лежит стопка заранее написанных листов и ящик для денег — берёте лист, кладёте деньги.
Заметка: Тихий храм с земляными холмиками у ворот. Внутренние залы открывают дважды в год.
Район: Хигасияма</description><styleUrl>#s0</styleUrl><Point><coordinates>135.7952,35.0225,0</coordinates></Point></Placemark>
<Placemark><name>Конкай-Комё-дзи (Куродани) · 金戒光明寺</name><description>Госюин — пишут от руки. 300–500 ¥
Часы: 9:00–16:00
Вход: территория бесплатно
Куда идти: Окошко в приёмной справа от главного зала
Условия: Обычно есть несколько вариантов, в том числе «афро-Будда» — статуя Годзо Амиды с необычной причёской, местная достопримечательность.
Заметка: Туристов почти нет, очередей не бывает.
Район: Хигасияма</description><styleUrl>#s0</styleUrl><Point><coordinates>135.7869,35.0192,0</coordinates></Point></Placemark>
<Placemark><name>Сандзюсанген-до · 三十三間堂</name><description>Госюин — пишут от руки. 300 ¥
Часы: 8:30–17:00 (зимой 9:00–16:00)
Вход: 600 ¥
Куда идти: Окошко в конце галереи, после тысячи статуй Каннон
Условия: Печать 17-го храма паломничества Сайгоку. Книжку принимают только внутри, по билету.
Заметка: Внутри нельзя фотографировать — печать остаётся единственным материальным следом визита.
Район: Хигасияма</description><styleUrl>#s0</styleUrl><Point><coordinates>135.7717,34.9878,0</coordinates></Point></Placemark>
<Placemark><name>Тофуку-дзи · 東福寺</name><description>Госюин — пишут от руки. 300 ¥
Часы: 9:00–16:00
Вход: территория бесплатно, сады 500–1000 ¥
Куда идти: Нокё-дзё рядом с главным залом Хондо
Условия: Отдельные печати есть у субхрамов Комё-ин и Рэйун-ин — туда идти со своими 300 ¥.
Заметка: Мост Цутэн-кё над ущельем клёнов; в ноябре здесь толпа, в остальное время пусто.
Район: Хигасияма</description><styleUrl>#s0</styleUrl><Point><coordinates>135.7742,34.9762,0</coordinates></Point></Placemark>
<Placemark><name>Окадзаки-дзиндзя · 岡崎神社</name><description>Госюин — пишут от руки. 500 ¥
Часы: 9:00–17:00
Вход: вход свободный
Куда идти: Окошко справа от главного зала
Условия: Святилище зайцев: печать с отпечатком заячьей лапы. Входит в новогодний обход шестнадцати святилищ.
Заметка: Приходят за амулетами на зачатие и лёгкие роды; фигурки зайцев по всему двору.
Район: Хигасияма</description><styleUrl>#s0</styleUrl><Point><coordinates>135.7893,35.0195,0</coordinates></Point></Placemark>
<Placemark><name>Авата-дзиндзя · 粟田神社</name><description>Госюин — пишут от руки. 500 ¥
Часы: 9:00–17:00
Вход: вход свободный
Куда идти: Окошко у главного зала, на верху лестницы
Условия: Участник ралли мечей: печать с именем клинка. Также входит в обход шестнадцати святилищ.
Заметка: Отсюда исторически выходили путники на дорогу Токайдо — святилище считалось «проводами в путь».
Район: Хигасияма</description><styleUrl>#s0</styleUrl><Point><coordinates>135.783,35.0077,0</coordinates></Point></Placemark>
<Placemark><name>Кумано-някуодзи · 熊野若王子神社</name><description>Госюин — пишут от руки. 300 ¥
Часы: 9:00–17:00
Вход: вход свободный
Куда идти: Маленькое окошко у главного зала
Условия: Начало Тропы философа с южного конца. Входит в обход шестнадцати святилищ.
Заметка: Служитель бывает не всегда — в будни днём вернее.
Район: Хигасияма</description><styleUrl>#s0</styleUrl><Point><coordinates>135.7972,35.0128,0</coordinates></Point></Placemark>
<Placemark><name>Киото Кумано-дзиндзя · 京都熊野神社</name><description>Госюин — пишут от руки. 300 ¥
Часы: 9:00–16:00
Вход: вход свободный
Куда идти: Окошко слева от входа
Условия: Небольшое городское святилище на перекрёстке Марутамати и Хигасиодзи. Входит в обход шестнадцати святилищ.
Заметка: Рядом знаменитая лавка ячменных моти Ясиро.
Район: Хигасияма</description><styleUrl>#s0</styleUrl><Point><coordinates>135.7825,35.0195,0</coordinates></Point></Placemark>
<Placemark><name>Сисэн-до · 詩仙堂</name><description>Госюин — пишут от руки. 300 ¥
Часы: 9:00–16:45
Вход: 700 ¥
Куда идти: Стойка у входа, где принимают плату
Условия: Книжку оставляют при входе и забирают на выходе.
Заметка: Крошечный сад с бамбуковым отпугивателем оленей; посетителей мало.
Район: Хигасияма</description><styleUrl>#s0</styleUrl><Point><coordinates>135.7965,35.0433,0</coordinates></Point></Placemark>
<Placemark><name>Роккаку-до · 六角堂 頂法寺</name><description>Госюин — пишут от руки. 300 ¥
Часы: 8:00–17:00
Вход: вход свободный
Куда идти: Окошко справа от шестиугольного зала, во дворе
Условия: Печать 18-го храма паломничества Сайгоку. Пишут быстро, очередей нет.
Заметка: Считается географическим центром старого города; отсюда пошла школа икебаны Икэнобо.
Район: Центр</description><styleUrl>#s0</styleUrl><Point><coordinates>135.7595,35.0078,0</coordinates></Point></Placemark>
<Placemark><name>Нисики Тэнмангу · 錦天満宮</name><description>Госюин — пишут от руки. 500 ¥
Часы: 9:00–17:00
Вход: вход свободный
Куда идти: Окошко у главного зала, в глубине двора
Условия: Стоит прямо в торце рынка Нисики. Печать обычная, бывают сезонные варианты с цветами сливы.
Заметка: Ворота святилища буквально встроены в стены двух соседних зданий — рабочая городская странность.
Район: Центр</description><styleUrl>#s0</styleUrl><Point><coordinates>135.766,35.005,0</coordinates></Point></Placemark>
<Placemark><name>Сэймэй-дзиндзя · 晴明神社</name><description>Госюин — пишут от руки. 500 ¥
Часы: окошко 9:00–17:00
Вход: вход свободный
Куда идти: Дзюё-дзё справа от главного зала
Условия: Святилище гадателя Абэ-но Сэймэя. Печать с пятиконечной звездой; бывают ограниченные варианты, о них пишут на сайте.
Заметка: Популярно у поклонников аниме и книг про оммёдо — по выходным очередь.
Район: Центр</description><styleUrl>#s0</styleUrl><Point><coordinates>135.7482,35.029,0</coordinates></Point></Placemark>
<Placemark><name>Замок Нидзё · 元離宮二条城</name><description>Госюин — пишут от руки. печать замка 300 ¥ · штамп бесплатно
Здесь же стоит бесплатный памятный штамп.
Часы: штамп 8:45–16:00, лавка 9:00–17:00
Вход: вход 1300 ¥ (двор 800 ¥)
Куда идти: Бесплатный штамп «53 Нидзё-дзё» — в большом зале отдыха (дай-кюкэй-дзё). Печать замка (го-дзёин) — в лавке ассоциации туризма там же
Условия: Это не госюин: замок не храм. Го-дзёин — печатный лист с гербом Токугава, продаётся готовым. Бесплатный штамп входит в набор «100 знаменитых замков Японии».
Заметка: Штамп можно поставить, не покупая билет во дворец: зал отдыха на территории, куда пускают по обычному входному.
Район: Центр</description><styleUrl>#s0</styleUrl><Point><coordinates>135.7481,35.0142,0</coordinates></Point></Placemark>
<Placemark><name>Мибу-дэра · 壬生寺</name><description>Госюин — пишут от руки. 300 ¥
Часы: 8:30–16:30
Вход: двор бесплатно, музей 300 ¥
Куда идти: Окошко в приёмной слева от главного зала
Условия: База отряда Синсэнгуми: печати с их знаком «誠». Несколько вариантов, спрашивайте у окошка.
Заметка: Во дворе могилы бойцов отряда — вход к ним отдельный.
Район: Центр</description><styleUrl>#s0</styleUrl><Point><coordinates>135.7452,34.9998,0</coordinates></Point></Placemark>
<Placemark><name>Итихимэ-дзиндзя · 市比賣神社</name><description>Госюин — пишут от руки. 300 ¥
Часы: 9:00–16:00
Вход: вход свободный
Куда идти: Окошко в первом этаже жилого дома — святилище встроено в городскую застройку
Условия: Все божества женские; приходят просить о женском здоровье. Входит в обход шестнадцати святилищ.
Заметка: Окошко закрывается в 16:00 — на час раньше большинства.
Район: Центр</description><styleUrl>#s0</styleUrl><Point><coordinates>135.7642,34.995,0</coordinates></Point></Placemark>
<Placemark><name>Сугавара-ин Тэнмангу · 菅原院天満宮神社</name><description>Госюин — пишут от руки. 300 ¥
Часы: 9:00–17:00
Вход: вход свободный
Куда идти: Окошко у главного зала, напротив западной стены дворцового парка
Условия: Место рождения Сугавара-но Митидзанэ, покровителя учащихся. С 2026 года входит в обход шестнадцати святилищ вместо Има-Кумано.
Заметка: Совсем маленькое, легко пройти мимо: ворота прямо на улице Карасума.
Район: Центр</description><styleUrl>#s0</styleUrl><Point><coordinates>135.758,35.0245,0</coordinates></Point></Placemark>
<Placemark><name>Камигорё-дзиндзя · 御靈神社（上御霊）</name><description>Госюин — пишут от руки. 300 ¥
Часы: 9:00–17:00
Вход: вход свободный
Куда идти: Окошко справа от главного зала
Условия: Успокаивает духов несправедливо погибших. Входит в обход шестнадцати святилищ.
Заметка: Здесь началась война Онин, спалившая средневековый Киото.
Район: Центр</description><styleUrl>#s0</styleUrl><Point><coordinates>135.7607,35.0338,0</coordinates></Point></Placemark>
<Placemark><name>Кинкаку-дзи · 金閣寺 鹿苑寺</name><description>Госюин — пишут от руки. 300 ¥
Часы: 9:00–17:00
Вход: 500 ¥
Куда идти: Окошко у павильона Фудо-до — в конце маршрута, перед выходом
Условия: Печать не на Золотой павильон, а на Фудо-мёо. Проще всего отдать книжку сразу, как дойдёте, и подождать пару минут.
Заметка: Входной билет здесь сам по себе бумажный талисман — его многие оставляют.
Район: Север</description><styleUrl>#s0</styleUrl><Point><coordinates>135.7292,35.0394,0</coordinates></Point></Placemark>
<Placemark><name>Рёан-дзи · 龍安寺</name><description>Госюин — пишут от руки. 300 ¥
Часы: 8:00–17:00 (зимой 8:30–16:30)
Вход: 600 ¥
Куда идти: Окошко внутри Ходзё, рядом с сухим садом камней
Условия: Печать выдают по билету, у выхода из зала с садом.
Заметка: Пруд перед храмом и чайный домик — тоже по этому же билету.
Район: Север</description><styleUrl>#s0</styleUrl><Point><coordinates>135.7183,35.0345,0</coordinates></Point></Placemark>
<Placemark><name>Нинна-дзи · 仁和寺</name><description>Госюин — пишут от руки. 300 ¥
Часы: 9:00–16:30
Вход: территория бесплатно, дворцовые залы 800 ¥
Куда идти: Нокё-дзё у главного зала Кондо, ближе к пагоде
Условия: Печатей несколько: главный зал, Мироку, паломничество Омуро. Территория бесплатная, за печатью билет не нужен.
Заметка: Низкорослая сакура Омуро цветёт в середине апреля — на две недели позже остального города.
Район: Север</description><styleUrl>#s0</styleUrl><Point><coordinates>135.7137,35.0309,0</coordinates></Point></Placemark>
<Placemark><name>Мёсин-дзи · 妙心寺</name><description>Госюин — пишут от руки. 300 ¥
Часы: 9:00–16:00
Вход: территория бесплатно, залы с драконом 700 ¥
Куда идти: Приёмная у главных залов; у субхрамов Тайдзо-ин и Кэйсюн-ин свои окошки
Условия: Целый квартал из сорока с лишним храмов. Печать главного храма — в центре, отдельные — в каждом открытом субхраме.
Заметка: Дракон на потолке зала Хатто смотрит на вас из любой точки — на это и приходят.
Район: Север</description><styleUrl>#s0</styleUrl><Point><coordinates>135.7203,35.0233,0</coordinates></Point></Placemark>
<Placemark><name>Китано Тэнмангу · 北野天満宮</name><description>Госюин — пишут от руки. 500 ¥
Часы: окошко 9:00–16:30
Вход: двор бесплатно, сливовый сад 1200 ¥
Куда идти: Дзюё-дзё справа от главного зала
Условия: Главное святилище учащихся Японии. Часто выпускают сезонные печати — со сливой в феврале, с клёнами в ноябре.
Заметка: 25-го числа каждого месяца во дворе большая барахолка Тэндзин-сан.
Район: Север</description><styleUrl>#s0</styleUrl><Point><coordinates>135.7351,35.0313,0</coordinates></Point></Placemark>
<Placemark><name>Дайтоку-дзи · 大徳寺</name><description>Госюин — пишут от руки. 300–500 ¥ в каждом субхраме
Часы: 9:00–16:30
Вход: территория бесплатно, каждый субхрам 400–500 ¥
Куда идти: Свои окошки в открытых субхрамах: Дайсэн-ин, Дзуйхо-ин, Рюгэн-ин, Кото-ин
Условия: Единой печати у комплекса нет. Идёте в конкретный субхрам, покупаете билет, там же получаете печать.
Заметка: Дайсэн-ин — самый известный сухой сад; фотографировать внутри запрещено.
Район: Север</description><styleUrl>#s0</styleUrl><Point><coordinates>135.7458,35.0437,0</coordinates></Point></Placemark>
<Placemark><name>Кэнкун-дзиндзя · 建勲神社</name><description>Госюин — пишут от руки. 500 ¥
Часы: 9:00–17:00
Вход: вход свободный
Куда идти: Окошко у главного зала, на вершине холма Фунаока
Условия: Святилище Оды Нобунаги и организатор ралли мечей. Печать с именем клинка Хэйсисиро Садамунэ.
Заметка: С холма видно весь город и гору Хиэй. Подъём по лестнице минут пять.
Район: Север</description><styleUrl>#s0</styleUrl><Point><coordinates>135.75,35.0413,0</coordinates></Point></Placemark>
<Placemark><name>Имамия-дзиндзя · 今宮神社</name><description>Госюин — пишут от руки. 300 ¥
Часы: 9:00–17:00
Вход: вход свободный
Куда идти: Окошко слева от главного зала
Условия: «Святилище золушки» — сюда приходят за удачным замужеством. Входит в обход шестнадцати святилищ.
Заметка: У восточных ворот две лавки жареных моти абурамоти, спорящих за первенство с XI века. Обе работают.
Район: Север</description><styleUrl>#s0</styleUrl><Point><coordinates>135.7381,35.0464,0</coordinates></Point></Placemark>
<Placemark><name>Вара Тэндзин · 敷地神社（わら天神宮）</name><description>Госюин — пишут от руки. 300 ¥
Часы: 9:00–17:00
Вход: вход свободный
Куда идти: Окошко у главного зала
Условия: Приходят за лёгкими родами: дают соломинку — с узлом к мальчику, без узла к девочке. Входит в обход шестнадцати святилищ.
Заметка: В пяти минутах от Кинкаку-дзи, но туристов нет вовсе.
Район: Север</description><styleUrl>#s0</styleUrl><Point><coordinates>135.7275,35.04,0</coordinates></Point></Placemark>
<Placemark><name>Симогамо-дзиндзя · 下鴨神社 賀茂御祖神社</name><description>Госюин — пишут от руки. 500 ¥
Часы: окошко 9:00–17:00
Вход: вход свободный, «зал грёз» 500 ¥
Куда идти: Дзюё-дзё в правой галерее главного двора
Условия: Есть отдельная печать святилища красоты Кавай, что у южного входа, — за ней идти туда.
Заметка: Идти через первобытную рощу Тадасу-но мори — двадцать минут пешком от Демачиянаги.
Район: Север</description><styleUrl>#s0</styleUrl><Point><coordinates>135.7727,35.0389,0</coordinates></Point></Placemark>
<Placemark><name>Камигамо-дзиндзя · 上賀茂神社 賀茂別雷神社</name><description>Госюин — пишут от руки. 500 ¥
Часы: окошко 9:00–16:30
Вход: вход свободный, внутренний двор 500 ¥
Куда идти: Дзюё-дзё справа, за вторыми воротами
Условия: Старейшее святилище города. Печать одна, пишут при вас.
Заметка: Два конуса из белого песка во дворе — модель священной горы. Ручей вдоль домов служителей.
Район: Север</description><styleUrl>#s0</styleUrl><Point><coordinates>135.7527,35.06,0</coordinates></Point></Placemark>
<Placemark><name>Тэнрю-дзи · 天龍寺</name><description>Госюин — пишут от руки. 300 ¥
Часы: 8:30–17:00
Вход: сад 500 ¥, залы +300 ¥
Куда идти: Нокё-дзё у входа в залы Кури, слева от кассы
Условия: Печать выдают и без билета в залы — окошко до турникета.
Заметка: Бамбуковая роща Арасиямы начинается прямо от северных ворот храма.
Район: Запад</description><styleUrl>#s0</styleUrl><Point><coordinates>135.6739,35.0158,0</coordinates></Point></Placemark>
<Placemark><name>Нономия-дзиндзя · 野宮神社</name><description>Госюин — пишут от руки. 500 ¥
Часы: 9:00–17:00
Вход: вход свободный
Куда идти: Окошко у входа в маленький двор, посреди бамбуковой рощи
Условия: Печать чаще всего заранее написанная. Приходят просить о хорошем браке и учёбе.
Заметка: Ворота из неокорённого дуба — редкая архаичная форма. Очередь к «камню желаний» бывает больше, чем к печати.
Район: Запад</description><styleUrl>#s0</styleUrl><Point><coordinates>135.6724,35.018,0</coordinates></Point></Placemark>
<Placemark><name>Мацуо-тайся · 松尾大社</name><description>Госюин — пишут от руки. 500 ¥
Часы: окошко 9:00–16:00
Вход: двор бесплатно, сады 500 ¥
Куда идти: Дзюё-дзё справа от главного зала
Условия: Покровитель сакеваров: во дворе стена из бочек, присланных винокурнями со всей страны.
Заметка: Ходит трамвай Ханкю до одноимённой станции — 200 метров до ворот.
Район: Запад</description><styleUrl>#s0</styleUrl><Point><coordinates>135.6851,34.9998,0</coordinates></Point></Placemark>
<Placemark><name>Отаги Нэмбуцу-дзи · 愛宕念仏寺</name><description>Госюин — пишут от руки. 300 ¥
Часы: 8:00–16:30
Вход: 500 ¥
Куда идти: То же окошко, где продают билет — при входе
Условия: Печать выдают сразу вместе с билетом, не надо искать отдельную стойку.
Заметка: 1200 каменных фигур ракан, вырезанных прихожанами в 1980-х: каждая со своим лицом, есть с фотоаппаратом и с теннисной ракеткой.
Район: Запад</description><styleUrl>#s0</styleUrl><Point><coordinates>135.6603,35.0362,0</coordinates></Point></Placemark>
<Placemark><name>Дзинго-дзи (Такао) · 神護寺</name><description>Госюин — пишут от руки. 300 ¥
Часы: 9:00–16:00
Вход: 1000 ¥
Куда идти: Нокё-дзё у главного зала, на вершине лестницы
Условия: От остановки автобуса до ворот — 350 ступеней вверх. Заложите час только на подъём и спуск.
Заметка: Отсюда бросают глиняные тарелочки какэварадзара в ущелье — на удачу.
Район: Запад</description><styleUrl>#s0</styleUrl><Point><coordinates>135.674,35.062,0</coordinates></Point></Placemark>
<Placemark><name>Кодзан-дзи · 高山寺</name><description>Госюин — пишут от руки. 300 ¥
Часы: 8:30–17:00
Вход: осенью 500 ¥, зал Сэкисуй-ин 1000 ¥
Куда идти: Окошко у зала Сэкисуй-ин
Условия: Хранит свиток «Весёлые картинки зверей» — прародителя манги. Оригинал в музее, здесь копия.
Заметка: В горах Такао, час на автобусе от вокзала. По дороге — Дзинго-дзи и Саймё-дзи, логично объединить.
Район: Запад</description><styleUrl>#s0</styleUrl><Point><coordinates>135.6784,35.0592,0</coordinates></Point></Placemark>
<Placemark><name>Сай-ин Касуга · 西院春日神社</name><description>Госюин — пишут от руки. 300 ¥
Часы: 9:00–17:00
Вход: вход свободный
Куда идти: Окошко у главного зала
Условия: Приходят просить об исцелении и о безопасной дороге. Входит в обход шестнадцати святилищ.
Заметка: Прямо у станции Сай-ин линии Ханкю — удобно по пути в Арасияму.
Район: Запад</description><styleUrl>#s0</styleUrl><Point><coordinates>135.7327,35.0074,0</coordinates></Point></Placemark>
<Placemark><name>Фусими Инари — главный зал · 伏見稲荷大社 本殿授与所</name><description>Госюин — пишут от руки. 300–500 ¥
Часы: окошко 8:30–16:00
Вход: вход свободный, круглосуточно
Куда идти: Дзюё-дзё справа от главного зала, сразу за большими воротами
Условия: Четыре варианта печати. Само святилище открыто всегда, но окошко закрывается в 16:00 — приходить раньше.
Заметка: Одна из трёх точек с печатями внутри комплекса. Каждая пишет своё — собирают все три.
Район: Юг</description><styleUrl>#s0</styleUrl><Point><coordinates>135.7726,34.9678,0</coordinates></Point></Placemark>
<Placemark><name>Фусими Инари — Окуся · 伏見稲荷大社 奥社奉拝所</name><description>Госюин — пишут от руки. 300–500 ¥
Часы: окошко 8:30–16:00
Вход: вход свободный
Куда идти: В конце первого коридора из тысячи ворот, 10 минут вверх от главного зала
Условия: Пять вариантов печати — больше, чем внизу. Здесь же камни «омокару» — загадываешь и поднимаешь.
Заметка: Дальше начинается подъём на гору. Большинство разворачивается именно тут.
Район: Юг</description><styleUrl>#s0</styleUrl><Point><coordinates>135.7787,34.9673,0</coordinates></Point></Placemark>
<Placemark><name>Фусими Инари — Годзэндани · 伏見稲荷大社 御膳谷奉拝所</name><description>Госюин — пишут от руки. 300–500 ¥
Часы: окошко 9:00–15:45
Вход: вход свободный
Куда идти: На середине горы Инари, за перекрёстком Ёцуцудзи
Условия: Три варианта, включая печать с датой по старому счёту. Подъём от подножия — около часа.
Заметка: Закрывается раньше всех — в 15:45. Кто вышел после обеда, туда не успевает.
Район: Юг</description><styleUrl>#s0</styleUrl><Point><coordinates>135.783,34.964,0</coordinates></Point></Placemark>
<Placemark><name>То-дзи · 東寺 教王護国寺</name><description>Госюин — пишут от руки. 300 ¥
Часы: 8:00–17:00
Вход: двор бесплатно, залы 500–1000 ¥
Куда идти: Нокё-дзё в северо-восточном углу двора, у сувенирной лавки
Условия: Печатей больше десяти — по разным залам и паломническим маршрутам. Выдают и без билета в залы.
Заметка: 21-го числа каждого месяца — большая барахолка Кобо-сан по всему двору.
Район: Юг</description><styleUrl>#s0</styleUrl><Point><coordinates>135.7477,34.9812,0</coordinates></Point></Placemark>
<Placemark><name>Тоёкуни-дзиндзя · 豊国神社</name><description>Госюин — пишут от руки. 500 ¥
Часы: 9:00–17:00
Вход: двор бесплатно, сокровищница 500 ¥
Куда идти: Окошко справа от резных ворот Карамон
Условия: Святилище Тоётоми Хидэёси. Участник ралли мечей и обхода шестнадцати святилищ — печати разные, называйте нужную.
Заметка: Ворота Карамон перенесены из замка Фусими — национальное сокровище, стоит просто так во дворе.
Район: Юг</description><styleUrl>#s0</styleUrl><Point><coordinates>135.7719,34.9917,0</coordinates></Point></Placemark>
<Placemark><name>Рокусоно-о-дзиндзя · 六孫王神社</name><description>Госюин — пишут от руки. 300 ¥
Часы: 9:00–17:00
Вход: вход свободный
Куда идти: Окошко у главного зала
Условия: Родовое святилище клана Минамото. Входит в обход шестнадцати святилищ.
Заметка: Пять минут пешком от То-дзи — логично объединить.
Район: Юг</description><styleUrl>#s0</styleUrl><Point><coordinates>135.742,34.983,0</coordinates></Point></Placemark>
<Placemark><name>Китидзё-ин Тэнмангу · 吉祥院天満宮</name><description>Госюин — пишут от руки. 300 ¥
Часы: 9:00–17:00
Вход: вход свободный
Куда идти: Окошко у главного зала
Условия: Ещё одно святилище Митидзанэ, на месте усадьбы его рода. Входит в обход шестнадцати святилищ.
Заметка: Совсем не туристическое место, служитель бывает не весь день.
Район: Юг</description><styleUrl>#s0</styleUrl><Point><coordinates>135.7345,34.97,0</coordinates></Point></Placemark>
<Placemark><name>Фудзиномори-дзиндзя · 藤森神社</name><description>Госюин — пишут от руки. 500 ¥
Часы: 9:00–17:00
Вход: вход свободный, сад гортензий 300 ¥
Куда идти: Дзюё-дзё слева от главного зала
Условия: Святилище лошадей и скачек. Участник ралли мечей и обхода шестнадцати святилищ.
Заметка: В июне цветут 3500 кустов гортензий — главный местный повод приехать.
Район: Юг</description><styleUrl>#s0</styleUrl><Point><coordinates>135.77,34.9497,0</coordinates></Point></Placemark>
<Placemark><name>Гокономия-дзиндзя · 御香宮神社</name><description>Госюин — пишут от руки. 300 ¥
Часы: 9:00–16:00
Вход: вход свободный, сад 200 ¥
Куда идти: Окошко справа от главного зала
Условия: Источник целебной воды, одна из ста лучших вод Японии — можно набрать бесплатно. Входит в обход шестнадцати святилищ.
Заметка: В квартале винокурен Фусими: рядом музей сакэ Гэккэйкан.
Район: Юг</description><styleUrl>#s0</styleUrl><Point><coordinates>135.7625,34.933,0</coordinates></Point></Placemark>
<Placemark><name>Курама-дэра · 鞍馬寺</name><description>Госюин — пишут от руки. 300 ¥
Часы: 9:00–16:15
Вход: пожертвование 500 ¥, канатка 200 ¥
Куда идти: Нокё-дзё у главного зала, на верхней площадке
Условия: От станции наверх — либо пешком 30 минут, либо на маленькой канатной дороге. Печатей несколько, включая перевал Осуги.
Заметка: Отсюда можно перейти горой в Кибунэ за час — тропа с корнями деревьев, обувь нужна нормальная.
Район: Дальние</description><styleUrl>#s0</styleUrl><Point><coordinates>135.7714,35.1189,0</coordinates></Point></Placemark>
<Placemark><name>Кифунэ-дзиндзя · 貴船神社</name><description>Госюин — пишут от руки. 500 ¥
Часы: окошко 9:00–16:30
Вход: вход свободный
Куда идти: Дзюё-дзё у главного зала, на верху лестницы с красными фонарями
Условия: Печатей две: главный зал и «внутреннее» святилище Окуномия выше по ручью.
Заметка: Знаменитая лестница с фонарями — та самая открыточная. Здесь же гадание на бумажках, которые проявляются в воде.
Район: Дальние</description><styleUrl>#s0</styleUrl><Point><coordinates>135.7626,35.1215,0</coordinates></Point></Placemark>
<Placemark><name>Сандзэн-ин (Охара) · 三千院</name><description>Госюин — пишут от руки. 300 ¥
Часы: 9:00–17:00 (зимой до 16:30)
Вход: 700 ¥
Куда идти: Окошко в залах, у выхода в моховой сад
Условия: Печать пишут по билету, внутри. Есть вариант с фигурками варабэ-дзидзо.
Заметка: Час на автобусе от вокзала. Деревня Охара в горах — заметно холоднее города.
Район: Дальние</description><styleUrl>#s0</styleUrl><Point><coordinates>135.8345,35.1197,0</coordinates></Point></Placemark>
<Placemark><name>Мансю-ин · 曼殊院門跡</name><description>Госюин — пишут от руки. 500 ¥
Часы: 9:00–17:00
Вход: 600 ¥
Куда идти: Стойка у входа, где принимают плату
Условия: Печать с Фудо-мёо. Книжку оставляют на входе.
Заметка: Далеко от остановки, подъём в гору минут двадцать. Зато пусто даже в ноябре.
Район: Дальние</description><styleUrl>#s0</styleUrl><Point><coordinates>135.8013,35.0508,0</coordinates></Point></Placemark>
<Placemark><name>Дайго-дзи · 醍醐寺</name><description>Госюин — пишут от руки. 300 ¥
Часы: 9:00–17:00 (зимой до 16:30)
Вход: нижний храм 1000 ¥, верхний бесплатно
Куда идти: Нокё-дзё у зала Кондо в нижнем храме Симо-Дайго
Условия: У верхнего храма Ками-Дайго на горе своё окошко — подъём пешком около часа, там печати другие.
Заметка: Пятиярусная пагода 951 года — старейшее здание Киото. Знаменитое ханами Хидэёси было здесь.
Район: Дальние</description><styleUrl>#s0</styleUrl><Point><coordinates>135.8195,34.951,0</coordinates></Point></Placemark>
<Placemark><name>Бёдо-ин (Удзи) · 平等院</name><description>Госюин — пишут от руки. 300 ¥
Часы: 9:00–17:00
Вход: 700 ¥, музей +600 ¥, зал Феникса +300 ¥
Куда идти: Окошко у выхода из музея Хосёкан
Условия: Печать с именем Амида-нёрай. В зал Феникса пускают сеансами по 50 человек — билет берут сразу на входе.
Заметка: Тот самый храм с монеты в 10 иен. Полчаса на поезде от вокзала Киото.
Район: Дальние</description><styleUrl>#s0</styleUrl><Point><coordinates>135.8077,34.8895,0</coordinates></Point></Placemark>
<Placemark><name>Удзигами-дзиндзя · 宇治上神社</name><description>Госюин — пишут от руки. 300 ¥
Часы: 9:00–16:30
Вход: вход свободный
Куда идти: Окошко у главного зала
Условия: Печать простая; бывают сезонные варианты с кроликами — символом Удзи.
Заметка: Старейшее сохранившееся здание святилища в Японии, около 1060 года. Через реку от Бёдо-ин, десять минут пешком.
Район: Дальние</description><styleUrl>#s0</styleUrl><Point><coordinates>135.8112,34.8918,0</coordinates></Point></Placemark>
</Folder>
<Style id="s1"><IconStyle><Icon><href>https://maps.google.com/mapfiles/kml/paddle/blu-circle.png</href></Icon></IconStyle></Style>
<Folder><name>Бесплатные штампы</name>
<Placemark><name>Ниси Хонган-дзи · 西本願寺</name><description>Бесплатный штамп — ставите сами.
Часы: 5:30–17:00
Вход: вход свободный
Куда идти: Столик с памятными штампами у выхода из главного зала Амида-до
Условия: Госюин здесь не выдают принципиально: школа Дзёдо-синсю считает отметку о посещении лишней. Есть бесплатный памятный штамп — ставите сами в свой блокнот.
Заметка: Огромные деревянные залы, объект ЮНЕСКО, вход бесплатный. Ходить можно свободно.
Район: Центр</description><styleUrl>#s1</styleUrl><Point><coordinates>135.7513,34.9915,0</coordinates></Point></Placemark>
<Placemark><name>Хигаси Хонган-дзи · 東本願寺</name><description>Бесплатный штамп — ставите сами.
Часы: 5:50–17:30 (зимой 6:20–16:30)
Вход: вход свободный
Куда идти: Стойка с памятными штампами в галерее у выхода
Условия: Госюин не выдают по той же причине, что и в Ниси Хонган-дзи. Штамп бесплатный и самообслуживаемый.
Заметка: Десять минут пешком от вокзала — удобно зайти между поездами.
Район: Центр</description><styleUrl>#s1</styleUrl><Point><coordinates>135.7595,34.9895,0</coordinates></Point></Placemark>
<Placemark><name>Музей манги · 京都国際マンガミュージアム</name><description>Бесплатный штамп — ставите сами.
Часы: 10:30–17:30, среда выходной
Вход: вход 1200 ¥
Куда идти: Столики со штампами у главной лестницы и в залах
Условия: Несколько разных штампов с персонажами; ставите сами. Нужен входной билет.
Заметка: Здание бывшей школы; 300 тысяч томов манги, часть можно читать на газоне.
Район: Центр</description><styleUrl>#s1</styleUrl><Point><coordinates>135.7594,35.0122,0</coordinates></Point></Placemark>
<Placemark><name>Станция Арасияма (Ранден) · 嵐電嵐山駅</name><description>Бесплатный штамп — ставите сами.
Часы: весь день
Вход: платформа открытая, билет не нужен
Куда идти: Столик со штампом на платформе, рядом с информационной стойкой
Условия: Штамп трамвайной линии Кэйфуку. Ставите сами в любой блокнот.
Заметка: «Лес кимоно» — колонны с тканью — тут же на платформе, вечером с подсветкой.
Район: Запад</description><styleUrl>#s1</styleUrl><Point><coordinates>135.6786,35.0152,0</coordinates></Point></Placemark>
<Placemark><name>Станция Сага-Арасияма (JR) · JR嵯峨嵐山駅</name><description>Бесплатный штамп — ставите сами.
Часы: весь день
Вход: штамп в вестибюле, до турникетов
Куда идти: Стойка у выхода, рядом с автоматами
Условия: Обычный вокзальный штамп JR West с бамбуковой рощей.
Заметка: Отсюда же отходит паровозик Сагано Торокко — у его станции свой отдельный штамп.
Район: Запад</description><styleUrl>#s1</styleUrl><Point><coordinates>135.682,35.0186,0</coordinates></Point></Placemark>
<Placemark><name>Вокзал Киото · JR京都駅</name><description>Бесплатный штамп — ставите сами.
Часы: весь день
Вход: штамп у турникетов, билет не нужен
Куда идти: Стойка со штампом у центрального выхода, рядом с турникетами линии Токайдо
Условия: Вокзальный штамп JR West с пятиярусной пагодой То-дзи. Ставите сами. На вокзале несколько разных — у линий Синкансэн и Нара свои.
Заметка: На 2-м этаже туристический центр «Кёнаби»: карты на русском нет, но на английском есть.
Район: Юг</description><styleUrl>#s1</styleUrl><Point><coordinates>135.7588,34.9858,0</coordinates></Point></Placemark>
<Placemark><name>Станция Инари (JR) · JR稲荷駅</name><description>Бесплатный штамп — ставите сами.
Часы: весь день
Вход: штамп в вестибюле
Куда идти: Стойка у выхода, прямо напротив ворот Фусими Инари
Условия: Штамп с лисой и воротами. Удобно поставить, пока ждёте обратный поезд.
Заметка: Станция стоит буквально у входа в святилище — переходить дорогу не нужно.
Район: Юг</description><styleUrl>#s1</styleUrl><Point><coordinates>135.7724,34.967,0</coordinates></Point></Placemark>
<Placemark><name>Киотская башня · 京都タワー</name><description>Бесплатный штамп — ставите сами.
Часы: 10:00–21:00
Вход: смотровая площадка 900 ¥, холл бесплатно
Куда идти: Штампы на смотровой площадке и в торговом этаже под башней
Условия: Обычные памятные штампы, самообслуживание.
Заметка: Со смотровой видно весь город и, в ясный день, гору Хиэй.
Район: Юг</description><styleUrl>#s1</styleUrl><Point><coordinates>135.7592,34.9876,0</coordinates></Point></Placemark>
<Placemark><name>Станция Курама (Эйдзан) · 叡山電鉄 鞍馬駅</name><description>Бесплатный штамп — ставите сами.
Часы: весь день
Вход: штамп в вестибюле
Куда идти: Стойка у выхода, под огромной маской тэнгу
Условия: Штамп горной линии Эйдзан. Ставите сами.
Заметка: Красная маска длинноносого тэнгу у станции — местный символ и точка сбора.
Район: Дальние</description><styleUrl>#s1</styleUrl><Point><coordinates>135.7699,35.1157,0</coordinates></Point></Placemark>
</Folder>
</Document></kml>
